NORAD_CAT_ID,OBJECT_NAME,OBJECT_TYPE,EPOCH,MEAN_MOTION,ECCENTRICITY,INCLINATION,RA_OF_ASC_NODE,ARG_OF_PERICENTER,MEAN_ANOMALY,BSTAR,MEAN_MOTION_DOT,MEAN_MOTION_DDOT,TLE_LINE0,TLE_LINE1,TLE_LINE2,SEMIMAJOR_AXIS,PERIOD,APOGEE,PERIGEE,DECAYED
50198.0,STARLINK-3264,PAYLOAD,2022-05-29 14:00:01,15.08867073,0.0001714,53.2195,314.6574,46.5707,47.8849,-0.0046483,-0.00073566,0.0,0 STARLINK-3264,1 50198U 21125AU  22149.58334491 -.00073566  00000-0 -46483-2 0  9995,2 50198  53.2195 314.6574 0001714  46.5707  47.8849 15.08867073 27916,6917.7980000000025,95.436,540.8480000000002,538.477,0.0
50198.0,STARLINK-3264,PAYLOAD,2022-05-29 19:56:33,15.08839238,0.0001902,53.2217,313.5461,48.7006,311.415,4.01e-05,3.5000000000000016e-06,0.0,0 STARLINK-3264,1 50198U 21125AU  22149.83094813  .00000350  00000-0  40100-4 0  9995,2 50198  53.2217 313.5461 0001902  48.7006 311.4150 15.08839238 28423,6917.8830000000025,95.438,541.063,538.432,0.0
50198.0,STARLINK-3264,PAYLOAD,2022-05-30 06:00:00,15.08810371,0.0001716,53.2191,311.6641,47.6701,69.9612,0.0021213,0.00033607,0.0,0 STARLINK-3264,1 50198U 21125AU  22150.25001157  .00033607  00000-0  21213-2 0  9995,2 50198  53.2191 311.6641 0001716  47.6701  69.9612 15.08810371 28016,6917.971,95.439,541.023,538.649,0.0
50198.0,STARLINK-3264,PAYLOAD,2022-05-30 14:00:01,15.08849148,0.0001806,53.2192,310.1685,48.9963,80.2012,-0.0013922,-0.00022382,0.0,0 STARLINK-3264,1 50198U 21125AU  22150.58334491 -.00022382  00000-0 -13922-2 0  9999,2 50198  53.2192 310.1685 0001806  48.9963  80.2012 15.08849148  1300,6917.852,95.437,540.967,538.4680000000002,0.0
50198.0,STARLINK-3264,PAYLOAD,2022-05-30 22:00:00,15.08805807,0.0001885,53.2189,308.6732,42.2722,98.5213,0.0030026,0.00047778,0.0,0 STARLINK-3264,1 50198U 21125AU  22150.91667824  .00047778  00000-0  30026-2 0  9993,2 50198  53.2189 308.6732 0001885  42.2722  98.5213 15.08805807 28115,6917.985,95.44,541.154,538.5459999999998,0.0
50198.0,STARLINK-3264,PAYLOAD,2022-05-31 06:00:02,15.08813569,0.0001712,53.2191,307.1752,47.168,105.2683,0.0022514,0.00035699,0.0,0 STARLINK-3264,1 50198U 21125AU  22151.25002315  .00035699  00000-0  22514-2 0  9991,2 50198  53.2191 307.1752 0001712  47.1680 105.2683 15.08813569  1303,6917.9609999999975,95.439,541.011,538.6419999999998,0.0
50198.0,STARLINK-3264,PAYLOAD,2022-05-31 14:00:01,15.08853586,0.0001828,53.2193,305.6797,47.9163,116.0325,-0.0014193,-0.00022814,0.0,0 STARLINK-3264,1 50198U 21125AU  22151.58334491 -.00022814  00000-0 -14193-2 0  9991,2 50198  53.2193 305.6797 0001828  47.9163 116.0325 15.08853586 28214,6917.839,95.437,540.9680000000002,538.439,0.0
50198.0,STARLINK-3264,PAYLOAD,2022-05-31 22:00:00,15.08831545,0.0001957,53.2191,304.1844,42.3827,133.172,0.0026662,0.00042391,0.0,0 STARLINK-3264,1 50198U 21125AU  22151.91667824  .00042391  00000-0  26662-2 0  9991,2 50198  53.2191 304.1844 0001957  42.3827 133.1720 15.08831545  1309,6917.906,95.438,541.125,538.4169999999998,0.0
50198.0,STARLINK-3264,PAYLOAD,2022-06-01 06:00:00,15.08838808,0.000177,53.2194,302.6862,46.5336,140.6324,0.0023023,0.00036542,0.0,0 STARLINK-3264,1 50198U 21125AU  22152.25001157  .00036542  00000-0  23023-2 0  9999,2 50198  53.2194 302.6862 0001770  46.5336 140.6324 15.08838808 28311,6917.884,95.438,540.9730000000002,538.525,0.0
50198.0,STARLINK-3264,PAYLOAD,2022-06-01 20:00:01,15.08827464,0.0001914,53.2197,300.0697,39.8986,77.5896,0.001296,0.00020391,0.0,0 STARLINK-3264,1 50198U 21125AU  22152.83334491  .00020391  00000-0  12960-2 0  9996,2 50198  53.2197 300.0697 0001914  39.8986  77.5896 15.08827464 28406,6917.919,95.438,541.1080000000002,538.46,0.0
50198.0,STARLINK-3264,PAYLOAD,2022-06-02 16:08:56,15.08827601,0.0001884,53.2208,296.2995,53.9852,306.1314,5.8269e-05,6.39e-06,0.0,0 STARLINK-3264,1 50198U 21125AU  22153.67288117  .00000639  00000-0  58269-4 0  9999,2 50198  53.2208 296.2995 0001884  53.9852 306.1314 15.08827601 28523,6917.918000000002,95.438,541.087,538.48,0.0
50198.0,STARLINK-3264,PAYLOAD,2022-06-02 19:19:42,15.08836579,0.0001957,53.2218,295.7069,40.3541,319.7596,-5.966e-05,-1.237e-05,0.0,0 STARLINK-3264,1 50198U 21125AU  22153.80535860 -.00001237  00000-0 -59660-4 0  9997,2 50198  53.2218 295.7069 0001957  40.3541 319.7596 15.08836579 29028,6917.891,95.438,541.11,538.4019999999998,0.0
50198.0,STARLINK-3264,PAYLOAD,2022-06-03 11:13:33,15.08843609,0.0001884,53.222,292.7334,41.2682,318.8453,1.8312e-06,-2.59e-06,0.0,0 STARLINK-3264,1 50198U 21125AU  22154.46775108 -.00000259  00000-0  18312-5 0  9993,2 50198  53.2220 292.7334 0001884  41.2682 318.8453 15.08843609 28649,6917.869000000002,95.437,541.038,538.431,0.0
50198.0,STARLINK-3264,PAYLOAD,2022-06-03 19:10:29,15.08847292,0.0001849,53.2218,291.246,49.7464,310.369,-7.2852e-06,-4.04e-06,0.0,0 STARLINK-3264,1 50198U 21125AU  22154.79894792 -.00000404  00000-0 -72852-5 0  9992,2 50198  53.2218 291.2460 0001849  49.7464 310.3690 15.08847292 29173,6917.858,95.437,541.002,538.444,0.0
50198.0,STARLINK-3264,PAYLOAD,2022-06-04 11:04:21,15.08830828,0.0001875,53.2212,288.2722,42.5015,317.6122,6.866399999999999e-05,8.05e-06,0.0,0 STARLINK-3264,1 50198U 21125AU  22155.46135516  .00000805  00000-0  68664-4 0  9997,2 50198  53.2212 288.2722 0001875  42.5015 317.6122 15.08830828 28790,6917.908,95.438,541.071,538.476,0.0
50198.0,STARLINK-3264,PAYLOAD,2022-06-05 22:00:00,15.08840294,0.0001861,53.219,281.7407,40.9112,308.613,-0.00074395,-0.00012109,0.0,0 STARLINK-3264,1 50198U 21125AU  22156.91667824 -.00012109  00000-0 -74395-3 0  9999,2 50198  53.2190 281.7407 0001861  40.9112 308.6130 15.08840294 29011,6917.879,95.438,541.0319999999998,538.457,0.0
50198.0,STARLINK-3264,PAYLOAD,2022-06-06 14:00:01,15.08848152,0.0001846,53.2189,278.7484,44.2766,328.4259,-0.0011526,-0.00018589,0.0,0 STARLINK-3264,1 50198U 21125AU  22157.58334491 -.00018589  00000-0 -11526-2 0  9998,2 50198  53.2189 278.7484 0001846  44.2766 328.4259 15.08848152  1300,6917.855,95.437,540.998,538.443,0.0
50198.0,STARLINK-3264,PAYLOAD,2022-06-06 20:00:01,15.08844912,0.0001849,53.2184,277.6265,40.2752,251.1259,-0.0005997,-9.821e-05,0.0,0 STARLINK-3264,1 50198U 21125AU  22157.83334491 -.00009821  00000-0 -59970-3 0  9991,2 50198  53.2184 277.6265 0001849  40.2752 251.1259 15.08844912 29159,6917.865,95.437,541.009,538.451,0.0
50198.0,STARLINK-3264,PAYLOAD,2022-06-07 10:36:41,15.08839821,0.0002033,53.221,274.8917,50.8112,309.3061,-1.0613e-05,-4.57e-06,0.0,0 STARLINK-3264,1 50198U 21125AU  22158.44215234 -.00000457  00000-0 -10613-4 0  9990,2 50198  53.2210 274.8917 0002033  50.8112 309.3061 15.08839821 29728,6917.880999999999,95.438,541.1519999999998,538.34,0.0
50198.0,STARLINK-3264,PAYLOAD,2022-06-07 16:58:14,15.08837533,0.0001974,53.2212,273.7025,49.6405,310.476,-4.9477e-05,-1.075e-05,0.0,0 STARLINK-3264,1 50198U 21125AU  22158.70711511 -.00001075  00000-0 -49477-4 0  9995,2 50198  53.2212 273.7025 0001974  49.6405 310.4760 15.08837533 29763,6917.888000000001,95.438,541.119,538.387,0.0
50198.0,STARLINK-3264,PAYLOAD,2022-06-08 13:38:14,15.08846231,0.0001898,53.2213,269.8373,47.9916,312.1238,0.00011137,1.485e-05,0.0,0 STARLINK-3264,1 50198U 21125AU  22159.56822351  .00001485  00000-0  11137-3 0  9999,2 50198  53.2213 269.8373 0001898  47.9916 312.1238 15.08846231 29415,6917.861,95.437,541.039,538.413,0.0
50198.0,STARLINK-3264,PAYLOAD,2022-06-08 16:49:00,15.08847986,0.0001854,53.2213,269.2424,47.0339,313.0808,9.1061e-05,1.162e-05,0.0,0 STARLINK-3264,1 50198U 21125AU  22159.70070248  .00001162  00000-0  91061-4 0  9992,2 50198  53.2213 269.2424 0001854  47.0339 313.0808 15.08847986 29914,6917.856,95.437,541.004,538.438,0.0
50198.0,STARLINK-3264,PAYLOAD,2022-06-09 00:45:56,15.08843265,0.0001825,53.2198,267.7553,38.9725,321.1399,9.7027e-06,-1.34e-06,0.0,0 STARLINK-3264,1 50198U 21125AU  22160.03190649 -.00000134  00000-0  97027-5 0  9996,2 50198  53.2198 267.7553 0001825  38.9725 321.1399 15.08843265 29481,6917.87,95.437,540.998,538.4730000000002,0.0
50198.0,STARLINK-3264,PAYLOAD,2022-06-09 13:29:03,15.08826115,0.0001877,53.2219,265.3776,52.3836,307.7326,-4.659600000000001e-05,-1.029e-05,0.0,0 STARLINK-3264,1 50198U 21125AU  22160.56184237 -.00001029  00000-0 -46596-4 0  9999,2 50198  53.2219 265.3776 0001877  52.3836 307.7326 15.08826115 30045,6917.9230000000025,95.438,541.086,538.489,0.0
50198.0,STARLINK-3264,PAYLOAD,2022-06-09 16:39:49,15.08827065,0.0001856,53.2208,264.7824,44.8118,315.3024,-2.7037e-05,-7.18e-06,0.0,0 STARLINK-3264,1 50198U 21125AU  22160.69432235 -.00000718  00000-0 -27037-4 0  9990,2 50198  53.2208 264.7824 0001856  44.8118 315.3024 15.08827065 29588,6917.92,95.438,541.069,538.501,0.0
50198.0,STARLINK-3264,PAYLOAD,2022-06-10 13:19:49,15.08840692,0.000188,53.2205,260.9169,44.048,316.0662,-1.5692e-05,-5.38e-06,0.0,0 STARLINK-3264,1 50198U 21125AU  22161.55543738 -.00000538  00000-0 -15692-4 0  9991,2 50198  53.2205 260.9169 0001880  44.0480 316.0662 15.08840692 29718,6917.878000000002,95.438,541.044,538.443,0.0
50198.0,STARLINK-3264,PAYLOAD,2022-06-10 18:05:59,15.08843016,0.0001897,53.2204,260.0249,42.9308,317.1832,5.5745000000000014e-06,-1.99e-06,0.0,0 STARLINK-3264,1 50198U 21125AU  22161.75415566 -.00000199  00000-0  55745-5 0  9996,2 50198  53.2204 260.0249 0001897  42.9308 317.1832 15.08843016 30223,6917.871,95.437,541.048,538.424,0.0
50198.0,STARLINK-3264,PAYLOAD,2022-06-11 13:10:37,15.08831344,0.000188,53.2205,256.4565,46.2521,313.8627,0.00017945,2.568e-05,0.0,0 STARLINK-3264,1 50198U 21125AU  22162.54904320  .00002568  00000-0  17945-3 0  9994,2 50198  53.2205 256.4565 0001880  46.2521 313.8627 15.08831344 29864,6917.906999999997,95.438,541.072,538.471,0.0
50198.0,STARLINK-3264,PAYLOAD,2022-06-11 17:56:46,15.08831213,0.0001857,53.2203,255.5642,41.7162,318.3972,0.00013388,1.843e-05,0.0,0 STARLINK-3264,1 50198U 21125AU  22162.74776594  .00001843  00000-0  13388-3 0  9998,2 50198  53.2203 255.5642 0001857  41.7162 318.3972 15.08831213 30379,6917.906999999997,95.438,541.057,538.488,0.0
